SAUDISAT 2              
1 28371U 04025F   26193.58127125  .00000111  00000+0  35825-4 0  9993
2 28371  98.5519 194.2206 0023929 216.4275 143.5295 14.56697427169440
COSMOS 2407             
1 28380U 04028A   26193.73002338  .00000042  00000+0  27071-4 0  9998
2 28380  82.9587  55.9134 0039139 178.9515 250.7724 13.76336395103399
COSMOS 2414             
1 28521U 05002A   26193.55231864  .00000058  00000+0  36071-4 0  9993
2 28521  82.9486  24.4548 0038709 256.6598 103.0248 13.87928124 87336
INMARSAT 4-F1           
1 28628U 05009A   26193.32475437  .00000030  00000+0  00000+0 0  9997
2 28628   5.2012  42.7812 0002473  73.2040 109.2466  1.00271047 77929
SJ-7                    
1 28737U 05024A   26193.66980338  .00004334  00000+0  19317-3 0  9999
2 28737  97.7279 224.4633 0013790 306.3506  53.6456 15.21912831151905
CUBESAT XI-V            
1 28895U 05043F   26192.38715503  .00000804  00000+0  13420-3 0  9990
2 28895  98.3011 348.5214 0015131 126.3821 233.8784 14.72696464105311
HINODE (SOLAR-B)        
1 29479U 06041A   26193.59829100  .00000324  00000+0  64077-4 0  9993
2 29479  98.0549 209.3763 0016823 202.9046 157.1411 14.68656280 58606
SHIJIAN-6 02B (SJ-6 02B)
1 29506U 06046B   26193.87160980  .00000509  00000+0  44106-4 0  9990
2 29506  97.7155 222.7712 0013672 344.3569  15.7230 15.01434697 74597
DMSP 5D-3 F17 (USA 191) 
1 29522U 06050A   26193.83786189 -.00000010  00000+0  17325-4 0  9995
2 29522  98.7386 199.8837 0009855 349.7981  10.2991 14.14996111 16057
LAPAN-TUBSAT            
1 29709U 07001A   26193.84258624  .00000613  00000+0  76708-4 0  9996
2 29709  98.1351 193.6459 0013626 100.2712 260.0040 14.85977396 54969
HAIYANG-1B              
1 31113U 07010A   26193.87538571  .00000033  00000+0  28471-4 0  9993
2 31113  98.3513 174.7264 0014568 122.2040 238.0558 14.31032976  4311
COSMO-SKYMED 2          
1 32376U 07059A   26193.81503852  .00000187  00000+0  30033-4 0  9993
2 32376  97.8892  17.0420 0001430  93.7470 266.3907 14.82149354  5805
CARTOSAT-2A             
1 32783U 08021A   26193.81841295  .00000125  00000+0  23519-4 0  9994
2 32783  97.7627 241.6504 0012688  34.3719 325.8311 14.79273393982591
CUTE-1.7+APD II (CO-65) 
1 32785U 08021C   26193.90119955  .00003342  00000+0  21157-3 0  9996
2 32785  97.8287 175.8607 0007239 308.7828  51.2753 15.09687806989075
SEEDS II (CO-66)        
1 32791U 08021J   26193.52388480  .00011335  00000+0  35129-3 0  9997
2 32791  97.7520 192.6480 0002793 162.8059 197.3278 15.33607267991170
YUBILEINY (RS30)        
1 32953U 08025A   26193.85144541  .00000029  00000+0  13585-3 0  9995
2 32953  82.5053 339.4745 0018569 254.4206 105.4824 12.43180761822889
FENGYUN 3A              
1 32958U 08026A   26193.77377374  .00000007  00000+0  23941-4 0  9998
2 32958  98.6887 134.1290 0009719  58.0752 302.1369 14.19576150939035
HUANJING 1A (HJ-1A)     
1 33320U 08041A   26193.85569309  .00001141  00000+0  14266-3 0  9998
2 33320  97.6692 178.7031 0020492  56.7469 303.5705 14.84047036962213
HUANJING 1B (HJ-1B)     
1 33321U 08041B   26193.90400649  .00000065  00000+0  14092-4 0  9998
2 33321  97.6528 181.8432 0037897  98.3989 262.1524 14.83360658962225
SHIJIAN-6 03A (SJ-6 03A)
1 33408U 08053A   26193.83473133  .00002665  00000+0  13690-3 0  9997
2 33408  97.8403 228.0492 0009607 285.7025  74.3147 15.17402189966857
SHIJIAN-6 03B (SJ-6 03B)
1 33409U 08053B   26193.84134139  .00000475  00000+0  38616-4 0  9992
2 33409  97.8581 214.1579 0017930 319.7270  40.2627 15.04378014966608
CHUANGXIN 1-02 (CX-1-02)
1 33434U 08056B   26193.83379352  .00000028  00000+0  27846-4 0  9997
2 33434  98.6135 219.8436 0015464  66.8752 293.4058 14.30158012922287
