OBJECT_NAME,OBJECT_ID,EPOCH,MEAN_MOTION,ECCENTRICITY,INCLINATION,RA_OF_ASC_NODE,ARG_OF_PERICENTER,MEAN_ANOMALY,EPHEMERIS_TYPE,CLASSIFICATION_TYPE,NORAD_CAT_ID,ELEMENT_SET_NO,REV_AT_EPOCH,BSTAR,MEAN_MOTION_DOT,MEAN_MOTION_DDOT
SAUDISAT 2,2004-025F,2026-07-12T13:57:01.836000,14.56697427,.0023929,98.5519,194.2206,216.4275,143.5295,0,U,28371,999,16944,.35825E-4,.111E-5,0
COSMOS 2407,2004-028A,2026-07-12T17:31:14.020032,13.76336395,.0039139,82.9587,55.9134,178.9515,250.7724,0,U,28380,999,10339,.27071E-4,.42E-6,0
COSMOS 2414,2005-002A,2026-07-12T13:15:20.330496,13.87928124,.0038709,82.9486,24.4548,256.6598,103.0248,0,U,28521,999,8733,.36071021E-4,.58E-6,0
INMARSAT 4-F1,2005-009A,2026-07-12T07:47:38.777568,1.00271047,.00024737,5.2012,42.7812,73.2040,109.2466,0,U,28628,999,7792,0,.3E-6,0
SJ-7,2005-024A,2026-07-12T16:04:31.012032,15.21912831,.001379,97.7279,224.4633,306.3506,53.6456,0,U,28737,999,15190,.19317E-3,.4334E-4,0
CUBESAT XI-V,2005-043F,2026-07-11T09:17:30.194592,14.72696464,.00151315,98.3011,348.5214,126.3821,233.8784,0,U,28895,999,10531,.13420163E-3,.804E-5,0
HINODE (SOLAR-B),2006-041A,2026-07-12T14:21:32.342400,14.68656280,.0016823,98.0549,209.3763,202.9046,157.1411,0,U,29479,999,5860,.64077E-4,.324E-5,0
SHIJIAN-6 02B (SJ-6 02B),2006-046B,2026-07-12T20:55:07.086720,15.01434697,.0013672,97.7155,222.7712,344.3569,15.7230,0,U,29506,999,7459,.44106E-4,.509E-5,0
DMSP 5D-3 F17 (USA 191),2006-050A,2026-07-12T20:06:31.267296,14.14996111,.0009855,98.7386,199.8837,349.7981,10.2991,0,U,29522,999,1605,.17325E-4,-.1E-6,0
LAPAN-TUBSAT,2007-001A,2026-07-12T20:13:19.451136,14.85977396,.0013626,98.1351,193.6459,100.2712,260.0040,0,U,29709,999,5496,.76708E-4,.613E-5,0
HAIYANG-1B,2007-010A,2026-07-12T21:00:33.325344,14.31032976,.0014568,98.3513,174.7264,122.2040,238.0558,0,U,31113,999,431,.28471E-4,.33E-6,0
COSMO-SKYMED 2,2007-059A,2026-07-12T19:33:39.328128,14.82149354,.000143,97.8892,17.0420,93.7470,266.3907,0,U,32376,999,580,.30033E-4,.187E-5,0
CARTOSAT-2A,2008-021A,2026-07-12T19:38:30.878880,14.79273393,.0012688,97.7627,241.6504,34.3719,325.8311,0,U,32783,999,98259,.23519E-4,.125E-5,0
CUTE-1.7+APD II (CO-65),2008-021C,2026-07-12T21:37:43.641120,15.09687806,.0007239,97.8287,175.8607,308.7828,51.2753,0,U,32785,999,98907,.21157E-3,.3342E-4,0
SEEDS II (CO-66),2008-021J,2026-07-12T12:34:23.646720,15.33607267,.00027939,97.7520,192.6480,162.8059,197.3278,0,U,32791,999,99117,.35129186E-3,.11335E-3,0
YUBILEINY (RS30),2008-025A,2026-07-12T20:26:04.883424,12.43180761,.0018569,82.5053,339.4745,254.4206,105.4824,0,U,32953,999,82288,.13585E-3,.29E-6,0
FENGYUN 3A,2008-026A,2026-07-12T18:34:14.051136,14.19576150,.0009719,98.6887,134.1290,58.0752,302.1369,0,U,32958,999,93903,.23941E-4,.7E-7,0
HUANJING 1A (HJ-1A),2008-041A,2026-07-12T20:32:11.882976,14.84047036,.0020492,97.6692,178.7031,56.7469,303.5705,0,U,33320,999,96221,.14266E-3,.1141E-4,0
HUANJING 1B (HJ-1B),2008-041B,2026-07-12T21:41:46.160736,14.83360658,.0037897,97.6528,181.8432,98.3989,262.1524,0,U,33321,999,96222,.14092E-4,.65E-6,0
SHIJIAN-6 03A (SJ-6 03A),2008-053A,2026-07-12T20:02:00.786912,15.17402189,.0009607,97.8403,228.0492,285.7025,74.3147,0,U,33408,999,96685,.1369E-3,.2665E-4,0
SHIJIAN-6 03B (SJ-6 03B),2008-053B,2026-07-12T20:11:31.896096,15.04378014,.001793,97.8581,214.1579,319.7270,40.2627,0,U,33409,999,96660,.38616E-4,.475E-5,0
CHUANGXIN 1-02 (CX-1-02),2008-056B,2026-07-12T20:00:39.760128,14.30158012,.0015464,98.6135,219.8436,66.8752,293.4058,0,U,33434,999,92228,.27846E-4,.28E-6,0
